STARLINK-2041           
1 47657U 21012AP  26195.25001156  .00140393  00000+0  52104-3 0  9992
2 47657  53.1477 161.5729 0007791  48.1133 307.7119 15.87146893  6009
STARLINK-2083           
1 47676U 21012BJ  26195.25001156  .00267581  38591-4  72806-3 0  9994
2 47676  53.0360  13.1225 0004667 264.8677 230.2592 15.93706946  6061
YAOGAN-31 03A           
1 47691U 21014A   26195.22011082 -.00000099  00000+0 -13062-4 0  9999
2 47691  63.4032 128.3749 0179569   0.7413 359.3846 13.45451012264414
YAOGAN-31 03B           
1 47693U 21014C   26195.22009706 -.00000142  00000+0 -79328-4 0  9997
2 47693  63.4012 129.1694 0179764   1.0710 359.0666 13.45450952264311
YAOGAN-31 03C           
1 47695U 21014E   26195.21990177 -.00000104  00000+0 -21179-4 0  9998
2 47695  63.4022 128.2227 0179671   1.0335 359.1028 13.45450703264368
AMAZONIA 1              
1 47699U 21015A   26195.17306375  .00000094  00000+0  42777-4 0  9992
2 47699  98.4305 267.4478 0004248 112.7713 247.3925 14.40825630282539
ARKTIKA-M 1             
1 47719U 21016A   26194.90891023 -.00000308  00000+0  00000+0 0  9992
2 47719  63.2675  53.7444 7296910 270.0563  14.5017  2.00612083 39320
STARLINK-2068           
1 47722U 21017A   26194.63642625  .00000186  00000+0  17745-4 0  9991
2 47722  53.1611 325.0008 0001098  73.3014 286.8108 15.31701614297375
STARLINK-2107           
1 47723U 21017B   26194.67168791  .00000182  00000+0  17649-4 0  9992
2 47723  53.1602 260.5277 0001430 100.3669 259.7494 15.31702272298249
STARLINK-2131           
1 47728U 21017G   26195.16268897  .00069426  00000+0  54268-3 0  9993
2 47728  53.0706 321.5799 0002214   0.9641 359.1380 15.71018444297446
STARLINK-2140           
1 47730U 21017J   26194.72648591 -.00000604  00000+0 -77052-5 0  9993
2 47730  53.1611 350.5425 0001450 140.3274 219.7834 15.31698053296962
STARLINK-2141           
1 47731U 21017K   26195.01637882  .01090067  68365-3  13811-2 0  9991
2 47731  53.1466 303.3479 0008608 337.1052  22.9597 16.06907138297666
STARLINK-2143           
1 47733U 21017M   26194.84763422  .00000051  00000+0  13395-4 0  9993
2 47733  53.1614 349.6955 0001067 114.6653 245.4459 15.31698908297042
STARLINK-2144           
1 47734U 21017N   26194.71873116 -.00000643  00000+0 -89604-5 0  9998
2 47734  53.1615 337.5075 0001207  88.5033 271.6106 15.31709123297176
STARLINK-2147           
1 47736U 21017Q   26195.25001156  .01238465  00000+0  13979-1 0  9999
2 47736  53.0722 325.5922 0001664 100.0928 320.2964 15.59433382  5850
STARLINK-2150           
1 47739U 21017T   26194.71346071  .00000392  00000+0  24413-4 0  9993
2 47739  53.1605 352.8436 0001443  50.8918 309.2211 15.31704337296993
STARLINK-2156           
1 47742U 21017W   26194.65150786  .00001593  00000+0  63081-4 0  9994
2 47742  53.1608 328.0846 0001159  70.6343 289.4784 15.31697301297331
STARLINK-2159           
1 47745U 21017Z   26195.19480480  .00127270  00000+0  59936-3 0  9998
2 47745  53.1522 313.1460 0002260  22.4302 337.6820 15.82250898297531
STARLINK-2160           
1 47746U 21017AA  26194.61319495  .00017366  00000+0  30984-3 0  9998
2 47746  53.1577 329.0160 0001090 181.9303 178.1702 15.50195793297250
STARLINK-2161           
1 47747U 21017AB  26194.64680252  .00002087  00000+0  78979-4 0  9995
2 47747  53.1599 327.8374 0000906  61.3487 298.7605 15.31701908297315
STARLINK-2163           
1 47749U 21017AD  26195.25001156  .00276628  40086-4  79381-3 0  9999
2 47749  53.1485 297.6969 0009490 340.1973 357.5071 15.92629405  5901
STARLINK-2164           
1 47750U 21017AE  26194.72598899  .00001485  00000+0  59586-4 0  9997
2 47750  53.1604 327.1070 0000964  98.4902 261.6209 15.31705003297307
STARLINK-2169           
1 47752U 21017AG  26195.25001156  .00080248  00000+0  37698-3 0  9996
2 47752  53.1517 311.9079 0001619  25.3290 340.8932 15.82491822  5935
STARLINK-2170           
1 47753U 21017AH  26194.67212731  .00001273  00000+0  52766-4 0  9990
2 47753  53.1598 337.7320 0000754  94.4264 265.6824 15.31707197297191
STARLINK-2178           
1 47760U 21017AQ  26194.74044270  .00000507  00000+0  28101-4 0  9992
2 47760  53.1616 350.2155 0001215  84.0032 276.1108 15.31696390297001
STARLINK-2180           
1 47762U 21017AS  26195.25001156  .00159520  00000+0  81517-3 0  9996
2 47762  53.1547 319.3786 0002999 326.5508 336.6461 15.80375328  5936
STARLINK-2185           
1 47767U 21017AX  26195.16822519  .00090004  00000+0  59856-3 0  9997
2 47767  53.1525 319.2535 0002208   7.3402 352.7650 15.74712249297491
STARLINK-2193           
1 47770U 21017BA  26194.70941985 -.00000994  00000+0 -20281-4 0  9991
2 47770  53.1620 337.5725 0000972  72.7079 287.4028 15.31685760297175
STARLINK-2194           
1 47771U 21017BB  26194.71407943 -.00006580  00000+0 -20064-3 0  9999
2 47771  53.1606 337.4796 0001096  87.9065 272.2062 15.31669741297180
STARLINK-2195           
1 47772U 21017BC  26194.74517486 -.00000008  00000+0  11524-4 0  9997
2 47772  53.1612 350.7902 0001380 143.4963 216.6133 15.31703541296970
