OBJECT_NAME,OBJECT_ID,EPOCH,MEAN_MOTION,ECCENTRICITY,INCLINATION,RA_OF_ASC_NODE,ARG_OF_PERICENTER,MEAN_ANOMALY,EPHEMERIS_TYPE,CLASSIFICATION_TYPE,NORAD_CAT_ID,ELEMENT_SET_NO,REV_AT_EPOCH,BSTAR,MEAN_MOTION_DOT,MEAN_MOTION_DDOT
STARLINK-2041,2021-012AP,2026-07-14T06:00:00.998784,15.87146893,.0007791,53.1477,161.5729,48.1133,307.7119,0,U,47657,999,600,.52104E-3,.140393E-2,0
STARLINK-2083,2021-012BJ,2026-07-14T06:00:00.998784,15.93706946,.0004667,53.0360,13.1225,264.8677,230.2592,0,U,47676,999,606,.72806E-3,.267581E-2,.38591E-4
YAOGAN-31 03A,2021-014A,2026-07-14T05:16:57.574848,13.45451012,.0179569,63.4032,128.3749,0.7413,359.3846,0,U,47691,999,26441,-.13062E-4,-.99E-6,0
YAOGAN-31 03B,2021-014C,2026-07-14T05:16:56.385984,13.45450952,.0179764,63.4012,129.1694,1.0710,359.0666,0,U,47693,999,26431,-.79328E-4,-.142E-5,0
YAOGAN-31 03C,2021-014E,2026-07-14T05:16:39.512928,13.45450703,.0179671,63.4022,128.2227,1.0335,359.1028,0,U,47695,999,26436,-.21179E-4,-.104E-5,0
AMAZONIA 1,2021-015A,2026-07-14T04:09:12.708000,14.40825630,.0004248,98.4305,267.4478,112.7713,247.3925,0,U,47699,999,28253,.42777E-4,.94E-6,0
ARKTIKA-M 1,2021-016A,2026-07-13T21:48:49.843872,2.00612083,.729691,63.2675,53.7444,270.0563,14.5017,0,U,47719,999,3932,0,-.308E-5,0
STARLINK-2068,2021-017A,2026-07-13T15:16:27.228000,15.31701614,.0001098,53.1611,325.0008,73.3014,286.8108,0,U,47722,999,29737,.17745E-4,.186E-5,0
STARLINK-2107,2021-017B,2026-07-13T16:07:13.835424,15.31702272,.000143,53.1602,260.5277,100.3669,259.7494,0,U,47723,999,29824,.17649E-4,.182E-5,0
STARLINK-2131,2021-017G,2026-07-14T03:54:16.327008,15.71018444,.0002214,53.0706,321.5799,0.9641,359.1380,0,U,47728,999,29744,.54268E-3,.69426E-3,0
STARLINK-2140,2021-017J,2026-07-13T17:26:08.382624,15.31698053,.000145,53.1611,350.5425,140.3274,219.7834,0,U,47730,999,29696,-.77052E-5,-.604E-5,0
STARLINK-2141,2021-017K,2026-07-14T00:23:35.130048,16.06907138,.0008608,53.1466,303.3479,337.1052,22.9597,0,U,47731,999,29766,.13811E-2,.1090067E-1,.68365E-3
STARLINK-2143,2021-017M,2026-07-13T20:20:35.596608,15.31698908,.0001067,53.1614,349.6955,114.6653,245.4459,0,U,47733,999,29704,.13395E-4,.51E-6,0
STARLINK-2144,2021-017N,2026-07-13T17:14:58.372224,15.31709123,.0001207,53.1615,337.5075,88.5033,271.6106,0,U,47734,999,29717,-.89604E-5,-.643E-5,0
STARLINK-2147,2021-017Q,2026-07-14T06:00:00.998784,15.59433382,.0001664,53.0722,325.5922,100.0928,320.2964,0,U,47736,999,585,.13979E-1,.1238465E-1,0
STARLINK-2150,2021-017T,2026-07-13T17:07:23.005344,15.31704337,.0001443,53.1605,352.8436,50.8918,309.2211,0,U,47739,999,29699,.24413E-4,.392E-5,0
STARLINK-2156,2021-017W,2026-07-13T15:38:10.279104,15.31697301,.0001159,53.1608,328.0846,70.6343,289.4784,0,U,47742,999,29733,.63081E-4,.1593E-4,0
STARLINK-2159,2021-017Z,2026-07-14T04:40:31.134720,15.82250898,.000226,53.1522,313.1460,22.4302,337.6820,0,U,47745,999,29753,.59936E-3,.12727E-2,0
STARLINK-2160,2021-017AA,2026-07-13T14:43:00.043680,15.50195793,.000109,53.1577,329.0160,181.9303,178.1702,0,U,47746,999,29725,.30984E-3,.17366E-3,0
STARLINK-2161,2021-017AB,2026-07-13T15:31:23.737728,15.31701908,.0000906,53.1599,327.8374,61.3487,298.7605,0,U,47747,999,29731,.78979E-4,.2087E-4,0
STARLINK-2163,2021-017AD,2026-07-14T06:00:00.998784,15.92629405,.000949,53.1485,297.6969,340.1973,357.5071,0,U,47749,999,590,.79381E-3,.276628E-2,.40086E-4
STARLINK-2164,2021-017AE,2026-07-13T17:25:25.448736,15.31705003,.0000964,53.1604,327.1070,98.4902,261.6209,0,U,47750,999,29730,.59586E-4,.1485E-4,0
STARLINK-2169,2021-017AG,2026-07-14T06:00:00.998784,15.82491822,.0001619,53.1517,311.9079,25.3290,340.8932,0,U,47752,999,593,.37698E-3,.80248E-3,0
STARLINK-2170,2021-017AH,2026-07-13T16:07:51.799584,15.31707197,.0000754,53.1598,337.7320,94.4264,265.6824,0,U,47753,999,29719,.52766E-4,.1273E-4,0
STARLINK-2178,2021-017AQ,2026-07-13T17:46:14.249280,15.31696390,.0001215,53.1616,350.2155,84.0032,276.1108,0,U,47760,999,29700,.28101E-4,.507E-5,0
STARLINK-2180,2021-017AS,2026-07-14T06:00:00.998784,15.80375328,.0002999,53.1547,319.3786,326.5508,336.6461,0,U,47762,999,593,.81517E-3,.15952E-2,0
STARLINK-2185,2021-017AX,2026-07-14T04:02:14.656416,15.74712249,.0002208,53.1525,319.2535,7.3402,352.7650,0,U,47767,999,29749,.59856E-3,.90004E-3,0
STARLINK-2193,2021-017BA,2026-07-13T17:01:33.875040,15.31685760,.0000972,53.1620,337.5725,72.7079,287.4028,0,U,47770,999,29717,-.20281E-4,-.994E-5,0
STARLINK-2194,2021-017BB,2026-07-13T17:08:16.462752,15.31669741,.0001096,53.1606,337.4796,87.9065,272.2062,0,U,47771,999,29718,-.20064E-3,-.658E-4,0
STARLINK-2195,2021-017BC,2026-07-13T17:53:03.107904,15.31703541,.000138,53.1612,350.7902,143.4963,216.6133,0,U,47772,999,29697,.11524E-4,-.8E-7,0
